[{"OBJECT_NAME":"STARLINK-5411","OBJECT_ID":"2022-177AX","EPOCH":"2026-03-09T22:00:01.999584","MEAN_MOTION":15.08560736,"ECCENTRICITY":0.00012422,"INCLINATION":43.0006,"RA_OF_ASC_NODE":119.0286,"ARG_OF_PERICENTER":246.312,"MEAN_ANOMALY":347.346,"EPHEMERIS_TYPE":0,"CLASSIFICATION_TYPE":"U","NORAD_CAT_ID":54865,"ELEMENT_SET_NO":999,"REV_AT_EPOCH":567,"BSTAR":0.0034707185,"MEAN_MOTION_DOT":0.00055363,"MEAN_MOTION_DDOT":0},{"OBJECT_NAME":"JD 1","OBJECT_ID":"1984-012C","EPOCH":"2026-03-09T23:30:21.347136","MEAN_MOTION":13.74166667,"ECCENTRICITY":0.07563161,"INCLINATION":63.3111,"RA_OF_ASC_NODE":313.7014,"ARG_OF_PERICENTER":126.7081,"MEAN_ANOMALY":240.5908,"EPHEMERIS_TYPE":0,"CLASSIFICATION_TYPE":"U","NORAD_CAT_ID":14728,"ELEMENT_SET_NO":999,"REV_AT_EPOCH":33001,"BSTAR":0.00047185243,"MEAN_MOTION_DOT":3.937e-5,"MEAN_MOTION_DDOT":0}]
